[{"OBJECT_NAME":"METOP-C","OBJECT_ID":"2018-087A","EPOCH":"2026-03-06T19:04:18.609312","MEAN_MOTION":14.21495943,"ECCENTRICITY":0.0002185,"INCLINATION":98.6771,"RA_OF_ASC_NODE":127.2167,"ARG_OF_PERICENTER":104.047,"MEAN_ANOMALY":256.095,"EPHEMERIS_TYPE":0,"CLASSIFICATION_TYPE":"U","NORAD_CAT_ID":43689,"ELEMENT_SET_NO":999,"REV_AT_EPOCH":38028,"BSTAR":9.3263e-5,"MEAN_MOTION_DOT":1.61e-6,"MEAN_MOTION_DDOT":0},{"OBJECT_NAME":"GEO-KOMPSAT-2A","OBJECT_ID":"2018-100A","EPOCH":"2026-03-04T06:21:38.470176","MEAN_MOTION":1.00267019,"ECCENTRICITY":0.00017508,"INCLINATION":0.0084,"RA_OF_ASC_NODE":82.1864,"ARG_OF_PERICENTER":326.5345,"MEAN_ANOMALY":336.9688,"EPHEMERIS_TYPE":0,"CLASSIFICATION_TYPE":"U","NORAD_CAT_ID":43823,"ELEMENT_SET_NO":999,"REV_AT_EPOCH":2657,"BSTAR":0,"MEAN_MOTION_DOT":0,"MEAN_MOTION_DDOT":0},{"OBJECT_NAME":"METEOR-M2 2","OBJECT_ID":"2019-038A","EPOCH":"2026-03-06T21:28:39.944928","MEAN_MOTION":14.24331679,"ECCENTRICITY":0.0001043,"INCLINATION":98.9084,"RA_OF_ASC_NODE":51.7073,"ARG_OF_PERICENTER":9.6559,"MEAN_ANOMALY":350.4639,"EPHEMERIS_TYPE":0,"CLASSIFICATION_TYPE":"U","NORAD_CAT_ID":44387,"ELEMENT_SET_NO":999,"REV_AT_EPOCH":34673,"BSTAR":-4.8402e-5,"MEAN_MOTION_DOT":-1.58e-6,"MEAN_MOTION_DDOT":0},{"OBJECT_NAME":"ARKTIKA-M 1","OBJECT_ID":"2021-016A","EPOCH":"2026-03-02T19:44:56.440608","MEAN_MOTION":2.00620868,"ECCENTRICITY":0.72428147,"INCLINATION":63.2036,"RA_OF_ASC_NODE":72.8571,"ARG_OF_PERICENTER":269.4536,"MEAN_ANOMALY":15.2019,"EPHEMERIS_TYPE":0,"CLASSIFICATION_TYPE":"U","NORAD_CAT_ID":47719,"ELEMENT_SET_NO":999,"REV_AT_EPOCH":3665,"BSTAR":0,"MEAN_MOTION_DOT":-1.08e-6,"MEAN_MOTION_DDOT":0},{"OBJECT_NAME":"FENGYUN 3E","OBJECT_ID":"2021-062A","EPOCH":"2026-03-06T21:12:01.992096","MEAN_MOTION":14.19892041,"ECCENTRICITY":0.0002417,"INCLINATION":98.751,"RA_OF_ASC_NODE":70.4277,"ARG_OF_PERICENTER":47.3765,"MEAN_ANOMALY":312.7615,"EPHEMERIS_TYPE":0,"CLASSIFICATION_TYPE":"U","NORAD_CAT_ID":49008,"ELEMENT_SET_NO":999,"REV_AT_EPOCH":24206,"BSTAR":-0.00016887,"MEAN_MOTION_DOT":-4.02e-6,"MEAN_MOTION_DDOT":0},{"OBJECT_NAME":"GOES 18","OBJECT_ID":"2022-021A","EPOCH":"2026-03-06T18:26:31.194240","MEAN_MOTION":1.00273571,"ECCENTRICITY":7.97e-5,"INCLINATION":0.0296,"RA_OF_ASC_NODE":62.8119,"ARG_OF_PERICENTER":344.0189,"MEAN_ANOMALY":257.2749,"EPHEMERIS_TYPE":0,"CLASSIFICATION_TYPE":"U","NORAD_CAT_ID":51850,"ELEMENT_SET_NO":999,"REV_AT_EPOCH":556,"BSTAR":0,"MEAN_MOTION_DOT":9.3e-7,"MEAN_MOTION_DDOT":0},{"OBJECT_NAME":"NOAA 21 (JPSS-2)","OBJECT_ID":"2022-150A","EPOCH":"2026-03-06T19:58:28.212672","MEAN_MOTION":14.19551353,"ECCENTRICITY":0.0002605,"INCLINATION":98.7552,"RA_OF_ASC_NODE":6.1309,"ARG_OF_PERICENTER":111.5223,"MEAN_ANOMALY":248.6231,"EPHEMERIS_TYPE":0,"CLASSIFICATION_TYPE":"U","NORAD_CAT_ID":54234,"ELEMENT_SET_NO":999,"REV_AT_EPOCH":17202,"BSTAR":8.7603e-5,"MEAN_MOTION_DOT":1.41e-6,"MEAN_MOTION_DDOT":0},{"OBJECT_NAME":"METEOSAT-12 (MTG-I1)","OBJECT_ID":"2022-170C","EPOCH":"2026-03-06T19:05:27.459744","MEAN_MOTION":1.00270038,"ECCENTRICITY":0.0002003,"INCLINATION":0.7034,"RA_OF_ASC_NODE":21.7646,"ARG_OF_PERICENTER":288.2963,"MEAN_ANOMALY":140.4983,"EPHEMERIS_TYPE":0,"CLASSIFICATION_TYPE":"U","NORAD_CAT_ID":54743,"ELEMENT_SET_NO":999,"REV_AT_EPOCH":1195,"BSTAR":0,"MEAN_MOTION_DOT":-1.1e-7,"MEAN_MOTION_DDOT":0},{"OBJECT_NAME":"TIANMU-1 03","OBJECT_ID":"2023-039A","EPOCH":"2026-03-06T20:00:26.459712","MEAN_MOTION":15.44067406,"ECCENTRICITY":0.0004021,"INCLINATION":97.5175,"RA_OF_ASC_NODE":236.0558,"ARG_OF_PERICENTER":108.9475,"MEAN_ANOMALY":251.2208,"EPHEMERIS_TYPE":0,"CLASSIFICATION_TYPE":"U","NORAD_CAT_ID":55973,"ELEMENT_SET_NO":999,"REV_AT_EPOCH":16502,"BSTAR":0.00049281,"MEAN_MOTION_DOT":0.00022463,"MEAN_MOTION_DDOT":0},{"OBJECT_NAME":"TIANMU-1 04","OBJECT_ID":"2023-039B","EPOCH":"2026-03-06T20:35:18.663360","MEAN_MOTION":15.44477055,"ECCENTRICITY":0.0004665,"INCLINATION":97.5109,"RA_OF_ASC_NODE":235.2416,"ARG_OF_PERICENTER":105.6266,"MEAN_ANOMALY":254.5497,"EPHEMERIS_TYPE":0,"CLASSIFICATION_TYPE":"U","NORAD_CAT_ID":55974,"ELEMENT_SET_NO":999,"REV_AT_EPOCH":16503,"BSTAR":0.00049916,"MEAN_MOTION_DOT":0.00023075,"MEAN_MOTION_DDOT":0},{"OBJECT_NAME":"TIANMU-1 05","OBJECT_ID":"2023-039C","EPOCH":"2026-03-06T19:26:34.172736","MEAN_MOTION":15.44006012,"ECCENTRICITY":0.0003758,"INCLINATION":97.5155,"RA_OF_ASC_NODE":235.684,"ARG_OF_PERICENTER":126.2079,"MEAN_ANOMALY":233.9517,"EPHEMERIS_TYPE":0,"CLASSIFICATION_TYPE":"U","NORAD_CAT_ID":55975,"ELEMENT_SET_NO":999,"REV_AT_EPOCH":16500,"BSTAR":0.00047299,"MEAN_MOTION_DOT":0.00021508,"MEAN_MOTION_DDOT":0},{"OBJECT_NAME":"TIANMU-1 06","OBJECT_ID":"2023-039D","EPOCH":"2026-03-06T20:35:06.387648","MEAN_MOTION":15.44506419,"ECCENTRICITY":0.0004087,"INCLINATION":97.5165,"RA_OF_ASC_NODE":236.2706,"ARG_OF_PERICENTER":121.8998,"MEAN_ANOMALY":238.2648,"EPHEMERIS_TYPE":0,"CLASSIFICATION_TYPE":"U","NORAD_CAT_ID":55976,"ELEMENT_SET_NO":999,"REV_AT_EPOCH":16503,"BSTAR":0.00047807,"MEAN_MOTION_DOT":0.00022114,"MEAN_MOTION_DDOT":0},{"OBJECT_NAME":"FENGYUN 3G","OBJECT_ID":"2023-055A","EPOCH":"2026-03-06T14:41:48.194304","MEAN_MOTION":15.54388152,"ECCENTRICITY":0.00107528,"INCLINATION":49.9928,"RA_OF_ASC_NODE":154.8855,"ARG_OF_PERICENTER":359.2643,"MEAN_ANOMALY":0.8308,"EPHEMERIS_TYPE":0,"CLASSIFICATION_TYPE":"U","NORAD_CAT_ID":56232,"ELEMENT_SET_NO":999,"REV_AT_EPOCH":16406,"BSTAR":0.00054713625,"MEAN_MOTION_DOT":0.00036389,"MEAN_MOTION_DDOT":0},{"OBJECT_NAME":"METEOR-M2 3","OBJECT_ID":"2023-091A","EPOCH":"2026-03-06T20:47:50.621568","MEAN_MOTION":14.2403735,"ECCENTRICITY":0.0005083,"INCLINATION":98.622,"RA_OF_ASC_NODE":122.8792,"ARG_OF_PERICENTER":105.6495,"MEAN_ANOMALY":254.5245,"EPHEMERIS_TYPE":0,"CLASSIFICATION_TYPE":"U","NORAD_CAT_ID":57166,"ELEMENT_SET_NO":999,"REV_AT_EPOCH":13995,"BSTAR":2.9937e-5,"MEAN_MOTION_DOT":2.5e-7,"MEAN_MOTION_DDOT":0},{"OBJECT_NAME":"TIANMU-1 07","OBJECT_ID":"2023-101A","EPOCH":"2026-03-06T13:47:20.454720","MEAN_MOTION":15.29118809,"ECCENTRICITY":0.00046097,"INCLINATION":97.2728,"RA_OF_ASC_NODE":118.5929,"ARG_OF_PERICENTER":142.4105,"MEAN_ANOMALY":217.7458,"EPHEMERIS_TYPE":0,"CLASSIFICATION_TYPE":"U","NORAD_CAT_ID":57399,"ELEMENT_SET_NO":999,"REV_AT_EPOCH":14596,"BSTAR":0.00029794732,"MEAN_MOTION_DOT":8.352e-5,"MEAN_MOTION_DDOT":0},{"OBJECT_NAME":"TIANMU-1 08","OBJECT_ID":"2023-101B","EPOCH":"2026-03-06T20:54:58.161600","MEAN_MOTION":15.2920362,"ECCENTRICITY":0.0006377,"INCLINATION":97.272,"RA_OF_ASC_NODE":118.6622,"ARG_OF_PERICENTER":134.8651,"MEAN_ANOMALY":225.3108,"EPHEMERIS_TYPE":0,"CLASSIFICATION_TYPE":"U","NORAD_CAT_ID":57400,"ELEMENT_SET_NO":999,"REV_AT_EPOCH":14600,"BSTAR":1.6842e-5,"MEAN_MOTION_DOT":4.05e-6,"MEAN_MOTION_DDOT":0},{"OBJECT_NAME":"TIANMU-1 09","OBJECT_ID":"2023-101C","EPOCH":"2026-03-06T20:28:26.442048","MEAN_MOTION":15.29019933,"ECCENTRICITY":0.0004658,"INCLINATION":97.2674,"RA_OF_ASC_NODE":118.1213,"ARG_OF_PERICENTER":147.262,"MEAN_ANOMALY":212.891,"EPHEMERIS_TYPE":0,"CLASSIFICATION_TYPE":"U","NORAD_CAT_ID":57401,"ELEMENT_SET_NO":999,"REV_AT_EPOCH":14600,"BSTAR":0.0003281,"MEAN_MOTION_DOT":9.177e-5,"MEAN_MOTION_DDOT":0}]
