METOP-C                 
1 43689U 18087A   26065.79465983  .00000161  00000+0  93263-4 0  9998
2 43689  98.6771 127.2167 0002185 104.0470 256.0950 14.21495943380288
GEO-KOMPSAT-2A          
1 43823U 18100A   26063.26502859  .00000000  00000+0  00000+0 0  9992
2 43823   0.0084  82.1864 0001750 326.5345 336.9688  1.00267019 26573
METEOR-M2 2             
1 44387U 19038A   26065.89490677 -.00000158  00000+0 -48402-4 0  9993
2 44387  98.9084  51.7073 0001043   9.6559 350.4639 14.24331679346734
ARKTIKA-M 1             
1 47719U 21016A   26061.82287547 -.00000108  00000+0  00000+0 0  9994
2 47719  63.2036  72.8571 7242814 269.4536  15.2019  2.00620868 36653
FENGYUN 3E              
1 49008U 21062A   26065.88335639 -.00000402  00000+0 -16887-3 0  9996
2 49008  98.7510  70.4277 0002417  47.3765 312.7615 14.19892041242064
GOES 18                 
1 51850U 22021A   26065.76841660  .00000093  00000+0  00000+0 0  9993
2 51850   0.0296  62.8119 0000797 344.0189 257.2749  1.00273571  5565
NOAA 21 (JPSS-2)        
1 54234U 22150A   26065.83227098  .00000141  00000+0  87603-4 0  9999
2 54234  98.7552   6.1309 0002605 111.5223 248.6231 14.19551353172028
METEOSAT-12 (MTG-I1)    
1 54743U 22170C   26065.79545671 -.00000011  00000+0  00000+0 0  9999
2 54743   0.7034  21.7646 0002003 288.2963 140.4983  1.00270038 11954
TIANMU-1 03             
1 55973U 23039A   26065.83363958  .00022463  00000+0  49281-3 0  9993
2 55973  97.5175 236.0558 0004021 108.9475 251.2208 15.44067406165026
TIANMU-1 04             
1 55974U 23039B   26065.85785490  .00023075  00000+0  49916-3 0  9990
2 55974  97.5109 235.2416 0004665 105.6266 254.5497 15.44477055165036
TIANMU-1 05             
1 55975U 23039C   26065.81011774  .00021508  00000+0  47299-3 0  9995
2 55975  97.5155 235.6840 0003758 126.2079 233.9517 15.44006012165008
TIANMU-1 06             
1 55976U 23039D   26065.85771282  .00022114  00000+0  47807-3 0  9996
2 55976  97.5165 236.2706 0004087 121.8998 238.2648 15.44506419165037
FENGYUN 3G              
1 56232U 23055A   26065.61236336  .00036389  00000+0  54714-3 0  9994
2 56232  49.9928 154.8855 0010752 359.2643   0.8308 15.54388152164062
METEOR-M2 3             
1 57166U 23091A   26065.86655812  .00000025  00000+0  29937-4 0  9990
2 57166  98.6220 122.8792 0005083 105.6495 254.5245 14.24037350139954
TIANMU-1 07             
1 57399U 23101A   26065.57454230  .00008352  00000+0  29795-3 0  9991
2 57399  97.2728 118.5929 0004609 142.4105 217.7458 15.29118809145964
TIANMU-1 08             
1 57400U 23101B   26065.87150650  .00000405  00000+0  16842-4 0  9997
2 57400  97.2720 118.6622 0006377 134.8651 225.3108 15.29203620146004
TIANMU-1 09             
1 57401U 23101C   26065.85308382  .00009177  00000+0  32810-3 0  9990
2 57401  97.2674 118.1213 0004658 147.2620 212.8910 15.29019933146002
